STARLINK-31880          
1 59661U 24084H   26068.28949361  .00000176  00000+0  15926-4 0  9999
2 59661  43.0046  40.4529 0001888 270.5346  89.5289 15.27585034104356
2025-313BD              
1 67299U 25313BD  26068.62968741  .00081010  00000+0  27634-2 0  9995
2 67299  97.3970 145.2850 0007287 333.4514  26.6352 15.30002360 10838
